OBJECT C                
1 57582U 23117C   24346.13218252  .00011491  00000+0  51754-3 0  9994
2 57582  97.4692  56.1877 0010530  43.7406 316.4662 15.21176717 74033
